{"type":"FeatureCollection","name":"contoh-kota","features":[{"type":"Feature","properties":{"nama":"Jakarta","pulau":"Jawa","penduduk_ribu":10562},"geometry":{"type":"Point","coordinates":[106.8456,-6.2088]}},
{"type":"Feature","properties":{"nama":"Surabaya","pulau":"Jawa","penduduk_ribu":2874},"geometry":{"type":"Point","coordinates":[112.7521,-7.2575]}},
{"type":"Feature","properties":{"nama":"Bekasi","pulau":"Jawa","penduduk_ribu":2543},"geometry":{"type":"Point","coordinates":[106.9896,-6.2383]}},
{"type":"Feature","properties":{"nama":"Bandung","pulau":"Jawa","penduduk_ribu":2444},"geometry":{"type":"Point","coordinates":[107.6191,-6.9175]}},
{"type":"Feature","properties":{"nama":"Medan","pulau":"Sumatra","penduduk_ribu":2435},"geometry":{"type":"Point","coordinates":[98.6722,3.5952]}},
{"type":"Feature","properties":{"nama":"Depok","pulau":"Jawa","penduduk_ribu":2056},"geometry":{"type":"Point","coordinates":[106.8186,-6.4025]}},
{"type":"Feature","properties":{"nama":"Tangerang","pulau":"Jawa","penduduk_ribu":1895},"geometry":{"type":"Point","coordinates":[106.63,-6.1783]}},
{"type":"Feature","properties":{"nama":"Palembang","pulau":"Sumatra","penduduk_ribu":1668},"geometry":{"type":"Point","coordinates":[104.7458,-2.9761]}},
{"type":"Feature","properties":{"nama":"Semarang","pulau":"Jawa","penduduk_ribu":1654},"geometry":{"type":"Point","coordinates":[110.4203,-6.9667]}},
{"type":"Feature","properties":{"nama":"Makassar","pulau":"Sulawesi","penduduk_ribu":1424},"geometry":{"type":"Point","coordinates":[119.4327,-5.1477]}},
{"type":"Feature","properties":{"nama":"Tangerang Selatan","pulau":"Jawa","penduduk_ribu":1354},"geometry":{"type":"Point","coordinates":[106.7108,-6.2886]}},
{"type":"Feature","properties":{"nama":"Batam","pulau":"Sumatra","penduduk_ribu":1196},"geometry":{"type":"Point","coordinates":[104.0305,1.0456]}},
{"type":"Feature","properties":{"nama":"Bandar Lampung","pulau":"Sumatra","penduduk_ribu":1166},"geometry":{"type":"Point","coordinates":[105.2667,-5.45]}},
{"type":"Feature","properties":{"nama":"Bogor","pulau":"Jawa","penduduk_ribu":1043},"geometry":{"type":"Point","coordinates":[106.7972,-6.5971]}},
{"type":"Feature","properties":{"nama":"Pekanbaru","pulau":"Sumatra","penduduk_ribu":983},"geometry":{"type":"Point","coordinates":[101.4478,0.5071]}},
{"type":"Feature","properties":{"nama":"Padang","pulau":"Sumatra","penduduk_ribu":909},"geometry":{"type":"Point","coordinates":[100.3543,-0.9471]}},
{"type":"Feature","properties":{"nama":"Malang","pulau":"Jawa","penduduk_ribu":844},"geometry":{"type":"Point","coordinates":[112.6304,-7.9666]}},
{"type":"Feature","properties":{"nama":"Samarinda","pulau":"Kalimantan","penduduk_ribu":827},"geometry":{"type":"Point","coordinates":[117.1536,-0.5022]}},
{"type":"Feature","properties":{"nama":"Denpasar","pulau":"Bali & Nusa Tenggara","penduduk_ribu":726},"geometry":{"type":"Point","coordinates":[115.2167,-8.65]}},
{"type":"Feature","properties":{"nama":"Serang","pulau":"Jawa","penduduk_ribu":692},"geometry":{"type":"Point","coordinates":[106.1503,-6.12]}},
{"type":"Feature","properties":{"nama":"Balikpapan","pulau":"Kalimantan","penduduk_ribu":689},"geometry":{"type":"Point","coordinates":[116.8312,-1.2379]}},
{"type":"Feature","properties":{"nama":"Pontianak","pulau":"Kalimantan","penduduk_ribu":659},"geometry":{"type":"Point","coordinates":[109.3333,-0.0263]}},
{"type":"Feature","properties":{"nama":"Banjarmasin","pulau":"Kalimantan","penduduk_ribu":657},"geometry":{"type":"Point","coordinates":[114.5908,-3.3194]}},
{"type":"Feature","properties":{"nama":"Jambi","pulau":"Sumatra","penduduk_ribu":606},"geometry":{"type":"Point","coordinates":[103.6131,-1.6101]}},
{"type":"Feature","properties":{"nama":"Manado","pulau":"Sulawesi","penduduk_ribu":452},"geometry":{"type":"Point","coordinates":[124.8421,1.4748]}},
{"type":"Feature","properties":{"nama":"Kupang","pulau":"Bali & Nusa Tenggara","penduduk_ribu":443},"geometry":{"type":"Point","coordinates":[123.607,-10.1772]}},
{"type":"Feature","properties":{"nama":"Mataram","pulau":"Bali & Nusa Tenggara","penduduk_ribu":430},"geometry":{"type":"Point","coordinates":[116.1165,-8.5833]}},
{"type":"Feature","properties":{"nama":"Jayapura","pulau":"Papua","penduduk_ribu":398},"geometry":{"type":"Point","coordinates":[140.7181,-2.5337]}},
{"type":"Feature","properties":{"nama":"Bengkulu","pulau":"Sumatra","penduduk_ribu":374},"geometry":{"type":"Point","coordinates":[102.2655,-3.8004]}},
{"type":"Feature","properties":{"nama":"Yogyakarta","pulau":"Jawa","penduduk_ribu":373},"geometry":{"type":"Point","coordinates":[110.3695,-7.7956]}},
{"type":"Feature","properties":{"nama":"Palu","pulau":"Sulawesi","penduduk_ribu":373},"geometry":{"type":"Point","coordinates":[119.8707,-0.8917]}},
{"type":"Feature","properties":{"nama":"Ambon","pulau":"Maluku","penduduk_ribu":347},"geometry":{"type":"Point","coordinates":[128.1814,-3.6954]}},
{"type":"Feature","properties":{"nama":"Kendari","pulau":"Sulawesi","penduduk_ribu":345},"geometry":{"type":"Point","coordinates":[122.515,-3.9985]}},
{"type":"Feature","properties":{"nama":"Palangka Raya","pulau":"Kalimantan","penduduk_ribu":293},"geometry":{"type":"Point","coordinates":[113.9213,-2.2161]}},
{"type":"Feature","properties":{"nama":"Sorong","pulau":"Papua","penduduk_ribu":284},"geometry":{"type":"Point","coordinates":[131.2558,-0.8762]}},
{"type":"Feature","properties":{"nama":"Banda Aceh","pulau":"Sumatra","penduduk_ribu":252},"geometry":{"type":"Point","coordinates":[95.3238,5.5483]}},
{"type":"Feature","properties":{"nama":"Ternate","pulau":"Maluku","penduduk_ribu":205},"geometry":{"type":"Point","coordinates":[127.3836,0.7907]}}]}
